IRIDIUM 126             
1 42809U 17039G   25364.58789482  .00000379  00000+0  12842-3 0  9992
2 42809  86.3952  64.1231 0002174 100.9835 259.1606 14.34216810445782
IRIDIUM 124             
1 42810U 17039H   25364.50909993  .00000502  00000+0  14321-3 0  9999
2 42810  86.4498   0.8759 0002482  92.9544 267.1941 14.43266029450785
IRIDIUM 128             
1 42811U 17039J   25364.29956894  .00000005  00000+0 -54300-5 0  9990
2 42811  86.3964  95.7807 0002244  92.9397 267.2056 14.34217661445771
IRIDIUM 121             
1 42812U 17039K   25364.60693245  .00000028  00000+0  28739-5 0  9995
2 42812  86.3953  64.1419 0002206  92.3513 267.7936 14.34217553445661
IRIDIUM 133             
1 42955U 17061A   25364.33128079  .00000152  00000+0  47261-4 0  9994
2 42955  86.3970  95.8813 0002186  96.7809 263.3636 14.34218414430570
IRIDIUM 100             
1 42956U 17061B   25364.32493865  .00000092  00000+0  25770-4 0  9996
2 42956  86.3969  95.8067 0002137  98.5827 261.5611 14.34218049430573
IRIDIUM 122             
1 42957U 17061C   25364.64206788  .00000221  00000+0  71911-4 0  9990
2 42957  86.3971  95.6738 0002122 100.0392 260.1043 14.34218128430628
IRIDIUM 129             
1 42958U 17061D   25364.52790110  .00000391  00000+0  13251-3 0  9995
2 42958  86.3972  95.7868 0001727  98.0090 262.1302 14.34219971430623
